[{"OBJECT_NAME":"ONEWEB-0152","OBJECT_ID":"2021-025B","EPOCH":"2026-03-09T16:49:53.578848","MEAN_MOTION":13.13469737,"ECCENTRICITY":0.00016064,"INCLINATION":87.9038,"RA_OF_ASC_NODE":340.0102,"ARG_OF_PERICENTER":80.6679,"MEAN_ANOMALY":279.4632,"EPHEMERIS_TYPE":0,"CLASSIFICATION_TYPE":"U","NORAD_CAT_ID":48043,"ELEMENT_SET_NO":999,"REV_AT_EPOCH":24049,"BSTAR":-0.00073429043,"MEAN_MOTION_DOT":-2.55e-6,"MEAN_MOTION_DDOT":0},{"OBJECT_NAME":"COSMOS 375 DEB","OBJECT_ID":"1970-091J","EPOCH":"2026-03-09T16:03:50.760864","MEAN_MOTION":13.03064805,"ECCENTRICITY":0.09651875,"INCLINATION":62.8397,"RA_OF_ASC_NODE":179.4498,"ARG_OF_PERICENTER":56.3658,"MEAN_ANOMALY":312.5686,"EPHEMERIS_TYPE":0,"CLASSIFICATION_TYPE":"U","NORAD_CAT_ID":4629,"ELEMENT_SET_NO":999,"REV_AT_EPOCH":61685,"BSTAR":0.00010398577,"MEAN_MOTION_DOT":2.31e-6,"MEAN_MOTION_DDOT":0}]
